satname,norad_id,inclination_deg,eccentricity,mean_motion_rev_per_day,perigee_km,apogee_km,l1,l2
STARLINK-1351,45697,53.0431,0.0001552,15.67142016,366.0385120680203,368.1322290918488,1 45697U 20035AS  26165.54976668  .00043960  00000+0  40617-3 0  9994,2 45697  53.0431 269.3690 0001552 162.9457 197.1611 15.67142016334493
STARLINK-1400,45700,53.0426,0.0002237,15.65843478,369.30427767049787,372.3237583559576,1 45700U 20035AV  26165.88866921  .00042967  00000+0  41839-3 0  9999,2 45700  53.0426 270.3323 0002237  42.1074 318.0112 15.65843478334502
STARLINK-1403,45701,53.156,0.0001638,15.34636842,460.8789720660552,463.1198007462417,1 45701U 20035AW  26165.66741707  .00044961  00000+0  13239-2 0  9998,2 45701  53.1560 305.4350 0001638 269.1654  90.9161 15.34636842334008
STARLINK-1407,45703,53.026,0.0006973,15.75292676,339.1112612014522,348.4856724034544,1 45703U 20035AY  26165.39225491  .00076320  00000+0  49570-3 0  9999,2 45703  53.0260 198.8792 0006973  43.6684 316.4885 15.75292676335463
STARLINK-1411,45706,53.0245,0.0011494,16.00162428,266.3225754626119,281.61443559872623,1 45706U 20035BB  26165.67102517  .00573688  15663-3  10804-2 0  9997,2 45706  53.0245 217.6836 0011494   4.4854 355.6276 16.00162428335218
STARLINK-1423,45710,53.043,0.0004565,15.70006561,355.8027924858252,361.9536873998941,1 45710U 20035BF  26165.54726971  .00052940  00000+0  43346-3 0  9990,2 45710  53.0430 268.2543 0004565  98.1002 262.0533 15.70006561334499
STARLINK-1433,45711,53.0428,0.0004141,15.69544937,357.40879394317835,362.98948393344745,1 45711U 20035BG  26165.78945594  .00051157  00000+0  42722-3 0  9997,2 45711  53.0428 265.6815 0004141 106.5611 253.5861 15.69544937334558
STARLINK-1434,45712,53.05,0.0001446,15.35075063,459.70865055638114,461.68644150709497,1 45712U 20035BH  26165.64079885  .00032932  00000+0  96067-3 0  9995,2 45712  53.0500 288.0305 0001446  60.1774 299.9371 15.35075063334241
STARLINK-1465,45731,53.0442,0.0003366,15.68926762,359.7002904610881,364.2377298271176,1 45731U 20038B   26165.54922646  .00032464  00000+0  28058-3 0  9995,2 45731  53.0442 112.4655 0003366  55.4136 304.7197 15.68926762331488
STARLINK-1471,45735,53.0455,0.0002474,15.53917698,403.6223511690714,406.9787960804997,1 45735U 20038F   26165.91819089  .00025466  00000+0  39414-3 0  9998,2 45735  53.0455  34.4005 0002474 140.6024 219.5166 15.53917698332628
STARLINK-1480,45741,53.0477,0.0006147,15.66015668,366.17101585730325,374.4675680226146,1 45741U 20038M   26165.54758462  .00047880  00000+0  46182-3 0  9995,2 45741  53.0477 106.3425 0006147  55.8171 304.3426 15.66015668331581
STARLINK-1500,45744,53.0349,0.000178,15.3953534,446.26741046372626,448.6973309596997,1 45744U 20038Q   26165.09392494  .00029566  00000+0  74826-3 0  9994,2 45744  53.0349  98.8328 0001780 134.4306 225.6844 15.39535340331641
STARLINK-1504,45746,53.0207,0.0002848,15.59580636,386.94264328600184,390.7971304087496,1 45746U 20038S   26165.90657999  .00034402  00000+0  42909-3 0  9992,2 45746  53.0207  30.8783 0002848 125.9354 234.1923 15.59580636332656
STARLINK-1506,45747,53.0755,0.0001799,15.28522115,478.9956937371162,481.4633340088085,1 45747U 20038T   26165.56524316  .00027463  00000+0  98525-3 0  9995,2 45747  53.0755 113.3991 0001799 167.4444 192.6600 15.28522115331493
STARLINK-1464,45751,53.046,0.0004703,15.54508496,400.3923049471341,406.7711896008195,1 45751U 20038X   26165.10674119  .00031304  00000+0  47212-3 0  9993,2 45751  53.0460 102.1028 0004703  59.1785 300.9688 15.54508496331609
STARLINK-1477,45754,53.0446,0.0001623,15.19243523,507.00794325979405,509.2432240944545,1 45754U 20038AA  26165.62212138  .00022859  00000+0  10830-2 0  9992,2 45754  53.0446 130.6943 0001623  22.9899 337.1168 15.19243523331243
STARLINK-1478,45755,53.0452,0.0004354,15.69285652,358.0071508797164,363.87554030305637,1 45755U 20038AB  26165.95829578  .00054719  00000+0  46132-3 0  9996,2 45755  53.0452  81.9840 0004354 101.6270 258.5235 15.69285652331949
STARLINK-1493,45759,53.0463,0.0006583,15.6579592,366.5077503960165,375.39359922867516,1 45759U 20038AF  26165.93308900  .00048224  00000+0  46912-3 0  9999,2 45759  53.0463  91.9769 0006583  53.3321 306.8299 15.65795920331804
STARLINK-1494,45760,53.026,0.0010956,16.34952431,172.0799804903263,186.44855815166284,1 45760U 20038AG  26165.83661887  .03947475  12206-4  50098-3 0  9991,2 45760  53.0260  17.2308 0010956 260.8267  99.1538 16.34952431332846
STARLINK-1502,45764,53.0445,0.0005063,15.62910905,375.8323907843205,382.67492456428135,1 45764U 20038AL  26165.10356449  .00100146  00000+0  10790-2 0  9991,2 45764  53.0445  99.9959 0005063  26.5418 333.5854 15.62910905331634
STARLINK-1470,45772,53.0441,0.0003824,15.35878494,455.69811177325755,460.9266282514427,1 45772U 20038AU  26165.93952622  .00025216  00000+0  72014-3 0  9998,2 45772  53.0441  80.1099 0003824  60.1144 300.0237 15.35878494331987
STARLINK-1482,45773,53.1569,0.0004699,15.38453914,447.47175818963296,453.88948098852234,1 45773U 20038AV  26165.54801639  .00045438  00000+0  11831-2 0  9994,2 45773  53.1569  98.3361 0004699  54.1693 305.9747 15.38453914331716
STARLINK-1496,45780,53.0465,6.39e-05,15.69550835,359.7516796138134,360.612836815013,1 45780U 20038BC  26165.94182666  .00060170  00000+0  50113-3 0  9995,2 45780  53.0465  66.0772 0000639 192.8547 167.2453 15.69550835332161
STARLINK-1513,45786,53.1605,0.0001383,15.31678635,469.85647542262177,471.7508924157937,1 45786U 20038BJ  26165.10134979 -.00001460  00000+0 -35306-4 0  9990,2 45786  53.1605 102.6847 0001383  85.1691 274.9469 15.31678635331615
STARLINK-1522,46027,53.0643,0.0002817,15.13449187,523.745907196535,527.6355237314274,1 46027U 20055A   26165.96073564  .00020664  00000+0  11558-2 0  9990,2 46027  53.0643  46.5836 0002817  69.8143 290.3152 15.13449187323590
STARLINK-1523,46028,53.1629,5.94e-05,15.30840455,472.896477398961,473.7104285247733,1 46028U 20055B   26165.90355533  .00041421  00000+0  13754-2 0  9998,2 46028  53.1629  35.1269 0000594 121.6520 238.4539 15.30840455323781
STARLINK-1526,46029,53.1624,0.000151,15.302055,474.16379377712656,476.2335011426603,1 46029U 20055C   26165.90026891  .00007060  00000+0  25024-3 0  9996,2 46029  53.1624  35.1808 0001510  89.7980 270.3193 15.30205500323775
STARLINK-1555,46032,53.1613,0.0001909,15.3020346,473.8964355645794,476.5130414403402,1 46032U 20055F   26165.94977263  .00003363  00000+0  12560-3 0  9995,2 46032  53.1613  34.9345 0001909  99.9830 260.1386 15.30203460323784
STARLINK-1556,46033,53.1577,0.0001215,15.30190917,474.4095041826986,476.07487532580944,1 46033U 20055G   26165.93293879  .00007601  00000+0  26856-3 0  9991,2 46033  53.1577  35.0293 0001215 124.8506 235.2609 15.30190917323756
STARLINK-1557,46034,53.1583,0.0001318,15.30191177,474.3381381586578,476.1446887084385,1 46034U 20055H   26165.93608314 -.00004832  00000+0 -15117-3 0  9999,2 46034  53.1583  35.0107 0001318  70.8211 289.2933 15.30191177323753
STARLINK-1558,46035,53.1584,0.0001333,15.30192723,474.3232425885608,476.1503520429251,1 46035U 20055J   26165.94346472 -.00000441  00000+0 -27576-5 0  9991,2 46035  53.1584  34.9746 0001333 125.9391 234.1734 15.30192723323789
STARLINK-1560,46036,53.1602,0.0001159,15.30204937,474.40602667048825,475.9946302632261,1 46036U 20055K   26165.92977428  .00000731  00000+0  36784-4 0  9991,2 46036  53.1602  35.0483 0001159  99.4211 260.6921 15.30204937323786
STARLINK-1569,46039,53.1621,0.0001152,15.3019852,474.42998176864603,476.0089951035807,1 46039U 20055N   26165.94662200 -.00001203  00000+0 -28510-4 0  9990,2 46039  53.1621  34.9531 0001152 103.5181 256.5948 15.30198520323770
STARLINK-1582,46043,53.162,0.0001304,15.31705486,469.8305503662359,471.6167332216155,1 46043U 20055S   26165.95685376  .00002985  00000+0  10790-3 0  9991,2 46043  53.1620  34.2327 0001304  97.1383 262.9767 15.31705486323788
STARLINK-1591,46045,53.1607,9.7e-05,15.3022073,474.4884049278053,475.81794322157566,1 46045U 20055U   26165.91396482  .00008633  00000+0  30308-3 0  9999,2 46045  53.1607  35.1143 0000970  96.7265 263.3846 15.30220730323756
STARLINK-1524,46047,53.1617,0.0001158,15.31696407,469.95760459628946,471.5438069889524,1 46047U 20055W   26165.86092900  .00004194  00000+0  14686-3 0  9992,2 46047  53.1617  21.9814 0001158  81.7955 278.3178 15.31696407323951
STARLINK-1527,46048,53.1606,0.0001092,15.31706151,469.9737641104648,471.46955484169393,1 46048U 20055X   26165.92151979 -.00000007  00000+0  11531-4 0  9999,2 46048  53.1606  21.6802 0001092  71.4239 288.6881 15.31706151323933
STARLINK-1540,46051,53.1594,0.0001209,15.3170632,469.8931287482683,471.54918265031665,1 46051U 20055AA  26165.90756536  .00006217  00000+0  21190-3 0  9990,2 46051  53.1594  21.9521 0001209  92.0995 268.0145 15.31706320323979
STARLINK-1541,46052,53.1563,0.0005677,15.87056869,306.7421882997378,314.336511427372,1 46052U 20055AB  26166.00004630  .00293238  00000+0  10726-2 0  9997,2 46052  53.1563   2.5604 0005677 275.6209  62.4035 15.87056869  5960
STARLINK-1543,46053,53.1609,0.0002064,15.31718413,469.2715106976266,472.09870446363584,1 46053U 20055AC  26165.87956207  .00004132  00000+0  14479-3 0  9991,2 46053  53.1609  21.8985 0002064  96.7905 263.3331 15.31718413323963
STARLINK-1548,46054,53.1594,0.000119,15.3170893,469.8983622949745,471.5283886843408,1 46054U 20055AD  26165.89356412  .00004484  00000+0  15611-3 0  9995,2 46054  53.1594  21.8987 0001190  71.8790 288.2341 15.31708930323964
STARLINK-1554,46055,53.1602,0.0001121,15.31695789,469.9847875079504,471.52030854461736,1 46055U 20055AE  26165.87491658  .00003443  00000+0  12267-3 0  9994,2 46055  53.1602  21.9317 0001121  72.1267 287.9857 15.31695789323965
STARLINK-1564,46058,53.1627,0.0001276,15.30196843,474.35000674162984,476.0989845953236,1 46058U 20055AH  26165.87134201 -.00003542  00000+0 -10752-3 0  9994,2 46058  53.1627  22.9716 0001276  79.3964 280.7180 15.30196843323947
